GLOBALSTAR M068         
1 32266U 07048D   24206.49333588 -.00000086  00000+0  97917-4 0  9996
2 32266  51.9858 221.1555 0001006 140.1007  24.4657 12.62794913776156
GLOBALSTAR M079         
1 37188U 10054A   24206.92559955 -.00000102  00000+0  11915-4 0  9994
2 37188  52.0048  56.0222 0000633  59.8999  75.2370 12.62261801635126
GLOBALSTAR M074         
1 37189U 10054B   24206.85957972 -.00000080  00000+0  13037-3 0  9999
2 37189  52.0024  55.5973 0000844  74.2917   0.1171 12.62270733635729
GLOBALSTAR M076         
1 37190U 10054C   24206.89822209 -.00000073  00000+0  16963-3 0  9992
2 37190  52.0036  55.6215 0000959  51.5254  78.4004 12.62254074635445
GLOBALSTAR M077         
1 37191U 10054D   24206.89123944 -.00000104  00000+0 -15183-5 0  9994
2 37191  52.0089  12.4036 0000897  92.0236  66.5596 12.62261427636554
GLOBALSTAR M075         
1 37192U 10054E   24206.73214788 -.00000071  00000+0  18178-3 0  9992
2 37192  51.9949  98.5660 0000591  55.9016 339.2247 12.62262033634657
GLOBALSTAR M073         
1 37193U 10054F   24207.21077339 -.00000093  00000+0  57877-4 0  9990
2 37193  52.0082  10.6792 0000846  81.7635 328.3514 12.62267328636599
GLOBALSTAR M083         
1 37739U 11033A   24206.85011973 -.00000071  00000+0  18249-3 0  9990
2 37739  51.9878 320.9551 0000588 126.9316  25.1479 12.62262695605519
GLOBALSTAR M088         
1 37740U 11033B   24206.50974420 -.00000098  00000+0  32138-4 0  9992
2 37740  51.9708 227.7583 0000206 200.2448 324.5829 12.62265574601016
GLOBALSTAR M091         
1 37741U 11033C   24206.96914289 -.00000103  00000+0  23133-5 0  9993
2 37741  51.9969 189.3294 0000223 246.2920 145.5641 12.62264953601868
GLOBALSTAR M085         
1 37742U 11033D   24206.96528897 -.00000083  00000+0  11806-3 0  9999
2 37742  51.9859 140.6670 0000219  18.5309  57.2388 12.62263610602374
GLOBALSTAR M081         
1 37743U 11033E   24207.24506845 -.00000085  00000+0  10544-3 0  9991
2 37743  51.9948 142.4011 0000420 356.5201 150.6078 12.62267094602939
GLOBALSTAR M089         
1 37744U 11033F   24207.21280081 -.00000060  00000+0  24233-3 0  9993
2 37744  51.9930  96.7916 0000963  45.7010 133.2382 12.62266367603649
GLOBALSTAR M084         
1 38040U 11080A   24206.82734927 -.00000072  00000+0  17540-3 0  9990
2 38040  52.0027 325.0781 0000916  95.3591  72.4485 12.62264584581326
GLOBALSTAR M080         
1 38041U 11080B   24206.87599019 -.00000083  00000+0  11497-3 0  9994
2 38041  52.0081 326.4214 0000828  78.5961  70.6271 12.62263074581459
GLOBALSTAR M082         
1 38042U 11080C   24206.65249059 -.00000066  00000+0  21091-3 0  9999
2 38042  52.0078 282.5149 0000899 161.0149 352.0174 12.62264268582130
GLOBALSTAR M092         
1 38043U 11080D   24207.02202135 -.00000069  00000+0  19432-3 0  9995
2 38043  52.0103  11.7462 0000963  92.8044  60.4565 12.62264230580846
GLOBALSTAR M090         
1 38044U 11080E   24206.75854475 -.00000067  00000+0  20311-3 0  9991
2 38044  51.9885 276.4232 0000601 154.3199   0.4604 12.62265256582266
GLOBALSTAR M086         
1 38045U 11080F   24207.23403787 -.00000082  00000+0  12150-3 0  9991
2 38045  51.9894 275.4996 0000438 315.0474  82.2812 12.62264748582379
GLOBALSTAR M097         
1 39072U 13005A   24206.93605483 -.00000112  00000+0 -48423-4 0  9992
2 39072  52.0020 190.6220 0000182 290.4708  69.6139 12.62269118529483
GLOBALSTAR M093         
1 39073U 13005B   24206.90915031 -.00000096  00000+0  42111-4 0  9991
2 39073  51.9785 184.5272 0000299 290.8961  69.1874 12.62276228529439
GLOBALSTAR M094         
1 39074U 13005C   24206.90915248 -.00000078  00000+0  14580-3 0  9990
2 39074  51.9960  98.5822 0000450  34.3204 325.7692 12.62266188531043
GLOBALSTAR M096         
1 39075U 13005D   24206.84324229 -.00000081  00000+0  12838-3 0  9995
2 39075  52.0060 147.0416 0000223 330.8471  29.2384 12.62267798530304
GLOBALSTAR M078         
1 39076U 13005E   24207.21283695 -.00000112  00000+0 -44025-4 0  9999
2 39076  51.9847 230.8737 0001130 165.2120 194.8780 12.62273426528831
GLOBALSTAR M095         
1 39077U 13005F   24206.60550589 -.00000104  00000+0 -72043-6 0  9995
2 39077  51.9774 230.0806 0000719 198.5357 161.5483 12.62262674528400
GLOBALSTAR M087         
1 52888U 22064A   24207.21738978 -.00000073  00000+0  10564-3 0  9994
2 52888  51.9762  75.7715 0010081  99.0463 261.1579 13.37579416102613
